{
  "links" : {
    "next" : "https://api.nasa.gov/neo/rest/v1/feed?start_date=2013-05-09&end_date=2013-05-09&detailed=true&api_key=t0TVs3DtDT2H8Oy2Zy8m2eVrNsAVKAexjcZXUckd",
    "prev" : "https://api.nasa.gov/neo/rest/v1/feed?start_date=2013-05-07&end_date=2013-05-07&detailed=true&api_key=t0TVs3DtDT2H8Oy2Zy8m2eVrNsAVKAexjcZXUckd",
    "self" : "https://api.nasa.gov/neo/rest/v1/feed?start_date=2013-05-08&end_date=2013-05-08&detailed=true&api_key=t0TVs3DtDT2H8Oy2Zy8m2eVrNsAVKAexjcZXUckd"
  },
  "element_count" : 5,
  "near_earth_objects" : {
    "2013-05-08" : [ {
      "links" : {
        "self" : "https://api.nasa.gov/neo/rest/v1/neo/3644729?api_key=t0TVs3DtDT2H8Oy2Zy8m2eVrNsAVKAexjcZXUckd"
      },
      "neo_reference_id" : "3644729",
      "name" : "(2013 MV10)",
      "nasa_jpl_url" : "http://ssd.jpl.nasa.gov/sbdb.cgi?sstr=3644729",
      "absolute_magnitude_h" : 22.0,
      "estimated_diameter" : {
        "kilometers" : {
          "estimated_diameter_min" : 0.1058168859,
          "estimated_diameter_max" : 0.2366137501
        },
        "meters" : {
          "estimated_diameter_min" : 105.8168859331,
          "estimated_diameter_max" : 236.6137501138
        },
        "miles" : {
          "estimated_diameter_min" : 0.0657515442,
          "estimated_diameter_max" : 0.1470249225
        },
        "feet" : {
          "estimated_diameter_min" : 347.1682720448,
          "estimated_diameter_max" : 776.2918559233
        }
      },
      "is_potentially_hazardous_asteroid" : false,
      "close_approach_data" : [ {
        "close_approach_date" : "2013-05-08",
        "epoch_date_close_approach" : 1367996400000,
        "relative_velocity" : {
          "kilometers_per_second" : "6.9976764637",
          "kilometers_per_hour" : "25191.6352693072",
          "miles_per_hour" : "15653.1024816426"
        },
        "miss_distance" : {
          "astronomical" : "0.1683979153",
          "lunar" : "65.5067901611",
          "kilometers" : "25191970",
          "miles" : "15653565"
        },
        "orbiting_body" : "Earth"
      } ],
      "orbital_data" : {
        "orbit_id" : "7",
        "orbit_determination_date" : "2017-04-06 08:45:30",
        "orbit_uncertainty" : "8",
        "minimum_orbit_intersection" : ".143118",
        "jupiter_tisserand_invariant" : "3.730",
        "epoch_osculation" : "2456491.5",
        "eccentricity" : ".4264101744762761",
        "semi_major_axis" : "1.982714354636723",
        "inclination" : "8.022688375448567",
        "ascending_node_longitude" : "208.821895846683",
        "orbital_period" : "1019.738116884787",
        "perihelion_distance" : "1.137264780739461",
        "perihelion_argument" : "31.45096191583782",
        "aphelion_distance" : "2.828163928533985",
        "perihelion_time" : "2456428.784135648303",
        "mean_anomaly" : "22.14069553032292",
        "mean_motion" : ".3530318167371925",
        "equinox" : "J2000"
      }
    }, {
      "links" : {
        "self" : "https://api.nasa.gov/neo/rest/v1/neo/2085989?api_key=t0TVs3DtDT2H8Oy2Zy8m2eVrNsAVKAexjcZXUckd"
      },
      "neo_reference_id" : "2085989",
      "name" : "85989 (1999 JD6)",
      "nasa_jpl_url" : "http://ssd.jpl.nasa.gov/sbdb.cgi?sstr=2085989",
      "absolute_magnitude_h" : 17.1,
      "estimated_diameter" : {
        "kilometers" : {
          "estimated_diameter_min" : 1.0105434154,
          "estimated_diameter_max" : 2.2596437711
        },
        "meters" : {
          "estimated_diameter_min" : 1010.5434154201,
          "estimated_diameter_max" : 2259.643771094
        },
        "miles" : {
          "estimated_diameter_min" : 0.6279223726,
          "estimated_diameter_max" : 1.4040771097
        },
        "feet" : {
          "estimated_diameter_min" : 3315.4312590467,
          "estimated_diameter_max" : 7413.5296699562
        }
      },
      "is_potentially_hazardous_asteroid" : true,
      "close_approach_data" : [ {
        "close_approach_date" : "2013-05-08",
        "epoch_date_close_approach" : 1367996400000,
        "relative_velocity" : {
          "kilometers_per_second" : "29.4579295258",
          "kilometers_per_hour" : "106048.5462928566",
          "miles_per_hour" : "65894.4425562475"
        },
        "miss_distance" : {
          "astronomical" : "0.4371020609",
          "lunar" : "170.032699585",
          "kilometers" : "65389536",
          "miles" : "40631176"
        },
        "orbiting_body" : "Earth"
      } ],
      "orbital_data" : {
        "orbit_id" : "289",
        "orbit_determination_date" : "2017-04-06 09:28:33",
        "orbit_uncertainty" : "0",
        "minimum_orbit_intersection" : ".0480717",
        "jupiter_tisserand_invariant" : "6.502",
        "epoch_osculation" : "2458000.5",
        "eccentricity" : ".6328373731114443",
        "semi_major_axis" : ".8830625113464621",
        "inclination" : "17.05627108732804",
        "ascending_node_longitude" : "130.2027845779737",
        "orbital_period" : "303.0997645114537",
        "perihelion_distance" : ".324227551372772",
        "perihelion_argument" : "309.1887641469194",
        "aphelion_distance" : "1.441897471320152",
        "perihelion_time" : "2457890.639144911038",
        "mean_anomaly" : "130.4847857462841",
        "mean_motion" : "1.187727745616233",
        "equinox" : "J2000"
      }
    }, {
      "links" : {
        "self" : "https://api.nasa.gov/neo/rest/v1/neo/3337734?api_key=t0TVs3DtDT2H8Oy2Zy8m2eVrNsAVKAexjcZXUckd"
      },
      "neo_reference_id" : "3337734",
      "name" : "(2006 OT9)",
      "nasa_jpl_url" : "http://ssd.jpl.nasa.gov/sbdb.cgi?sstr=3337734",
      "absolute_magnitude_h" : 19.9,
      "estimated_diameter" : {
        "kilometers" : {
          "estimated_diameter_min" : 0.2783267681,
          "estimated_diameter_max" : 0.6223575734
        },
        "meters" : {
          "estimated_diameter_min" : 278.3267680719,
          "estimated_diameter_max" : 622.3575733667
        },
        "miles" : {
          "estimated_diameter_min" : 0.1729441822,
          "estimated_diameter_max" : 0.3867149477
        },
        "feet" : {
          "estimated_diameter_min" : 913.1455937611,
          "estimated_diameter_max" : 2041.8556210042
        }
      },
      "is_potentially_hazardous_asteroid" : false,
      "close_approach_data" : [ {
        "close_approach_date" : "2013-05-08",
        "epoch_date_close_approach" : 1367996400000,
        "relative_velocity" : {
          "kilometers_per_second" : "14.949419937",
          "kilometers_per_hour" : "53817.9117730776",
          "miles_per_hour" : "33440.3574569992"
        },
        "miss_distance" : {
          "astronomical" : "0.4406478086",
          "lunar" : "171.4120025635",
          "kilometers" : "65919976",
          "miles" : "40960772"
        },
        "orbiting_body" : "Earth"
      } ],
      "orbital_data" : {
        "orbit_id" : "26",
        "orbit_determination_date" : "2017-04-06 09:08:21",
        "orbit_uncertainty" : "1",
        "minimum_orbit_intersection" : ".0588852",
        "jupiter_tisserand_invariant" : "5.515",
        "epoch_osculation" : "2458000.5",
        "eccentricity" : ".1818109163185571",
        "semi_major_axis" : "1.123826370634043",
        "inclination" : "14.56155049050997",
        "ascending_node_longitude" : "310.2574233782863",
        "orbital_period" : "435.1582833011275",
        "perihelion_distance" : ".9195024684061089",
        "perihelion_argument" : "194.0064528033588",
        "aphelion_distance" : "1.328150272861977",
        "perihelion_time" : "2458106.575776124457",
        "mean_anomaly" : "272.2450821454797",
        "mean_motion" : ".8272851829201691",
        "equinox" : "J2000"
      }
    } ]
  }
}